[{"OBJECT_NAME":"MESON-1","OBJECT_ID":"2024-043AK","EPOCH":"2026-03-09T21:36:16.481664","MEAN_MOTION":15.29893494,"ECCENTRICITY":0.00095452,"INCLINATION":97.5469,"RA_OF_ASC_NODE":205.2839,"ARG_OF_PERICENTER":227.1432,"MEAN_ANOMALY":132.9007,"EPHEMERIS_TYPE":0,"CLASSIFICATION_TYPE":"U","NORAD_CAT_ID":59131,"ELEMENT_SET_NO":999,"REV_AT_EPOCH":11189,"BSTAR":0.0002974823,"MEAN_MOTION_DOT":8.544e-5,"MEAN_MOTION_DDOT":0},{"OBJECT_NAME":"STARLINK-31733","OBJECT_ID":"2024-071C","EPOCH":"2026-03-09T03:07:11.331264","MEAN_MOTION":15.27568165,"ECCENTRICITY":8.666e-5,"INCLINATION":43.0014,"RA_OF_ASC_NODE":342.5971,"ARG_OF_PERICENTER":279.6373,"MEAN_ANOMALY":80.4381,"EPHEMERIS_TYPE":0,"CLASSIFICATION_TYPE":"U","NORAD_CAT_ID":59486,"ELEMENT_SET_NO":999,"REV_AT_EPOCH":10812,"BSTAR":-0.00011288663,"MEAN_MOTION_DOT":-3.366e-5,"MEAN_MOTION_DDOT":0}]
